{
 "type": "FeatureCollection",
 "generated_utc": "2026-09-28T22:10:08Z",
 "covered_wit_date": "2026-09-28",
 "features": [
  {
   "type": "Feature",
   "geometry": {
    "type": "Point",
    "coordinates": [
     135.72931,
     -0.72299
    ]
   },
   "properties": {
    "detection_id": "24f8f6ce46a66cebf6801b4af257ac09ae06aa7c",
    "bright_ti4": "331.21",
    "scan": "0.45",
    "track": "0.47",
    "acq_date": "2026-09-23",
    "acq_time": "412",
    "satellite": "N",
    "instrument": "VIIRS",
    "confidence": "n",
    "version": "2.0NRT",
    "bright_ti5": "292.65",
    "frp": 4.33,
    "daynight": "D",
    "datetime_utc": "2026-09-23T04:12:00+00:00",
    "datetime_wit": "2026-09-23T13:12:00+09:00",
    "date_wit": "2026-09-23",
    "desa": "Sauyas",
    "distrik": "Supiori Timur",
    "kabupaten": "Supiori",
    "on_land": true,
    "recurrent_site": false
   }
  },
  {
   "type": "Feature",
   "geometry": {
    "type": "Point",
    "coordinates": [
     135.73035,
     -0.72489
    ]
   },
   "properties": {
    "detection_id": "3f8c89e13cbed151ee5f1f19f24df1bcf50025b3",
    "bright_ti4": "331.66",
    "scan": "0.39",
    "track": "0.36",
    "acq_date": "2026-09-23",
    "acq_time": "429",
    "satellite": "N20",
    "instrument": "VIIRS",
    "confidence": "n",
    "version": "2.0NRT",
    "bright_ti5": "297.2",
    "frp": 2.35,
    "daynight": "D",
    "datetime_utc": "2026-09-23T04:29:00+00:00",
    "datetime_wit": "2026-09-23T13:29:00+09:00",
    "date_wit": "2026-09-23",
    "desa": "Sauyas",
    "distrik": "Supiori Timur",
    "kabupaten": "Supiori",
    "on_land": true,
    "recurrent_site": false
   }
  }
 ]
}